NORAD_CAT_ID,OBJECT_NAME,OBJECT_TYPE,EPOCH,MEAN_MOTION,ECCENTRICITY,INCLINATION,RA_OF_ASC_NODE,ARG_OF_PERICENTER,MEAN_ANOMALY,BSTAR,MEAN_MOTION_DOT,MEAN_MOTION_DDOT,TLE_LINE0,TLE_LINE1,TLE_LINE2,SEMIMAJOR_AXIS,PERIOD,APOGEE,PERIGEE,DECAYED
52479.0,STARLINK-3878,PAYLOAD,2024-07-30 21:25:52,15.08840484,0.0001435,53.217,163.3568,98.3926,261.7229,2.1784e-05,5.9e-07,0.0,0 STARLINK-3878,1 52479U 22049AE  24212.89297200  .00000059  00000-0  21784-4 0  9992,2 52479  53.2170 163.3568 0001435  98.3926 261.7229 15.08840484125042,6917.879,95.438,540.737,538.751,0.0
52479.0,STARLINK-3878,PAYLOAD,2024-07-31 13:19:44,15.08834389,0.0001299,53.2158,160.3819,85.8286,274.2854,-1.5068e-06,-3.12e-06,0.0,0 STARLINK-3878,1 52479U 22049AE  24213.55537567 -.00000312  00000-0 -15068-5 0  9992,2 52479  53.2158 160.3819 0001299  85.8286 274.2854 15.08834389125143,6917.898,95.438,540.661,538.864,0.0
52479.0,STARLINK-3878,PAYLOAD,2024-07-31 19:41:17,15.08835437,0.0001424,53.2169,159.1946,101.9603,258.1549,-4.3716e-06,-3.57e-06,0.0,0 STARLINK-3878,1 52479U 22049AE  24213.82033613 -.00000357  00000-0 -43716-5 0  9995,2 52479  53.2169 159.1946 0001424 101.9603 258.1549 15.08835437125186,6917.894,95.438,540.744,538.774,0.0
52479.0,STARLINK-3878,PAYLOAD,2024-08-01 13:10:31,15.08843167,0.0001424,53.2175,155.9228,98.4516,261.6638,5.9638e-05,6.61e-06,0.0,0 STARLINK-3878,1 52479U 22049AE  24214.54897061  .00000661  00000-0  59638-4 0  9995,2 52479  53.2175 155.9228 0001424  98.4516 261.6638 15.08843167124213,6917.871,95.437,540.721,538.751,0.0
52479.0,STARLINK-3878,PAYLOAD,2024-08-01 19:32:03,15.08841825,0.0001558,53.2182,154.7332,97.98,262.1369,5.5365e-05,5.93e-06,0.0,0 STARLINK-3878,1 52479U 22049AE  24214.81393199  .00000593  00000-0  55365-4 0  9995,2 52479  53.2182 154.7332 0001558  97.9800 262.1369 15.08841825125332,6917.875,95.437,540.818,538.662,0.0
52479.0,STARLINK-3878,PAYLOAD,2024-08-02 13:01:17,15.0884762,0.0001456,53.2163,151.4604,81.4759,278.6398,4.1392e-05,3.71e-06,0.0,0 STARLINK-3878,1 52479U 22049AE  24215.54256807  .00000371  00000-0  41392-4 0  9999,2 52479  53.2163 151.4604 0001456  81.4759 278.6398 15.08847620125440,6917.857,95.437,540.729,538.715,0.0
52479.0,STARLINK-3878,PAYLOAD,2024-08-02 19:22:51,15.08829633,0.000177,53.2161,150.2716,87.269,272.8504,5.2348e-05,5.45e-06,0.0,0 STARLINK-3878,1 52479U 22049AE  24215.80754130  .00000545  00000-0  52348-4 0  9996,2 52479  53.2161 150.2716 0001770  87.2690 272.8504 15.08829633124400,6917.912,95.438,541.002,538.553,0.0
52479.0,STARLINK-3878,PAYLOAD,2024-08-03 12:52:05,15.08838974,0.0001354,53.2169,147.0005,91.4784,268.6363,8.1052e-06,-1.59e-06,0.0,0 STARLINK-3878,1 52479U 22049AE  24216.53617883 -.00000159  00000-0  81052-5 0  9997,2 52479  53.2169 147.0005 0001354  91.4784 268.6363 15.08838974124518,6917.884,95.438,540.685,538.812,0.0
52479.0,STARLINK-3878,PAYLOAD,2024-08-04 01:35:10,15.08848957,0.0001242,53.216,144.6191,99.3899,260.7234,5.2089e-05,5.41e-06,0.0,0 STARLINK-3878,1 52479U 22049AE  24217.06609067  .00000541  00000-0  52089-4 0  9992,2 52479  53.2160 144.6191 0001242  99.3899 260.7234 15.08848957124598,6917.853,95.437,540.577,538.859,0.0
52479.0,STARLINK-3878,PAYLOAD,2024-08-04 12:42:52,15.08848391,0.0001308,53.2155,142.5386,85.3884,274.7258,8.1698e-05,1.013e-05,0.0,0 STARLINK-3878,1 52479U 22049AE  24217.52976966  .00001013  00000-0  81698-4 0  9991,2 52479  53.2155 142.5386 0001308  85.3884 274.7258 15.08848391125748,6917.855,95.437,540.625,538.815,0.0
52479.0,STARLINK-3878,PAYLOAD,2024-08-04 19:04:25,15.08835822,0.0001383,53.2154,141.3518,82.145,277.9699,0.00017229,2.455e-05,0.0,0 STARLINK-3878,1 52479U 22049AE  24217.79473577  .00002455  00000-0  17229-3 0  9999,2 52479  53.2154 141.3518 0001383  82.1450 277.9699 15.08835822124702,6917.893,95.438,540.715,538.801,0.0
52479.0,STARLINK-3878,PAYLOAD,2024-08-04 22:15:11,15.08840423,0.0001452,53.2158,140.7575,81.1822,278.9334,0.00020468,2.971e-05,0.0,0 STARLINK-3878,1 52479U 22049AE  24217.92721305  .00002971  00000-0  20468-3 0  9991,2 52479  53.2158 140.7575 0001452  81.1822 278.9334 15.08840423125803,6917.879,95.438,540.749,538.74,0.0
52479.0,STARLINK-3878,PAYLOAD,2024-08-05 01:25:56,15.0884721,0.0001454,53.2163,140.1597,94.3661,265.7497,0.00030249,4.53e-05,0.0,0 STARLINK-3878,1 52479U 22049AE  24218.05968667  .00004530  00000-0  30249-3 0  9991,2 52479  53.2163 140.1597 0001454  94.3661 265.7497 15.08847210124743,6917.858,95.437,540.729,538.717,0.0
52479.0,STARLINK-3878,PAYLOAD,2024-08-05 22:05:59,15.08825679,0.0001529,53.2165,136.2976,102.1269,257.9894,-0.00016162,-2.858e-05,0.0,0 STARLINK-3878,1 52479U 22049AE  24218.92082922 -.00002858  00000-0 -16162-3 0  9999,2 52479  53.2165 136.2976 0001529 102.1269 257.9894 15.08825679125950,6917.924,95.438,540.847,538.731,0.0
52479.0,STARLINK-3878,PAYLOAD,2024-08-06 01:16:46,15.08819378,0.0001467,53.2155,135.702,104.1622,255.9533,-0.00023807,-4.073e-05,0.0,0 STARLINK-3878,1 52479U 22049AE  24219.05331278 -.00004073  00000-0 -23807-3 0  9990,2 52479  53.2155 135.7020 0001467 104.1622 255.9533 15.08819378124898,6917.943,95.439,540.823,538.794,0.0
52479.0,STARLINK-3878,PAYLOAD,2024-08-06 18:46:00,15.08835886,0.000159,53.2162,132.4281,109.9432,250.1732,-1.5698e-05,-5.38e-06,0.0,0 STARLINK-3878,1 52479U 22049AE  24219.78195079 -.00000538  00000-0 -15698-4 0  9999,2 52479  53.2162 132.4281 0001590 109.9432 250.1732 15.08835886125002,6917.893,95.438,540.858,538.658,0.0
52479.0,STARLINK-3878,PAYLOAD,2024-08-06 21:56:45,15.08851072,0.0001617,53.2163,131.8342,109.4231,250.6936,0.00012387,1.684e-05,0.0,0 STARLINK-3878,1 52479U 22049AE  24219.91441827  .00001684  00000-0  12387-3 0  9991,2 52479  53.2163 131.8342 0001617 109.4231 250.6936 15.08851072126104,6917.847,95.437,540.83,538.593,0.0
52479.0,STARLINK-3878,PAYLOAD,2024-08-07 01:07:32,15.0885009,0.0001512,53.217,131.2453,108.9023,251.2133,0.00025051,3.702e-05,0.0,0 STARLINK-3878,1 52479U 22049AE  24220.04690105  .00003702  00000-0  25051-3 0  9997,2 52479  53.2170 131.2453 0001512 108.9023 251.2133 15.08850090125043,6917.85,95.437,540.761,538.669,0.0
52479.0,STARLINK-3878,PAYLOAD,2024-08-08 02:33:42,15.08845002,0.0001554,53.2158,126.4774,116.7601,243.355,0.00032822,4.94e-05,0.0,0 STARLINK-3878,1 52479U 22049AE  24221.10674449  .00004940  00000-0  32822-3 0  9997,2 52479  53.2158 126.4774 0001554 116.7601 243.3550 15.08845002126285,6917.865,95.437,540.805,538.655,0.0
52479.0,STARLINK-3878,PAYLOAD,2024-08-08 21:38:20,15.08839323,0.0001529,53.2166,122.9097,113.6929,246.4224,-0.00019888,-3.452e-05,0.0,0 STARLINK-3878,1 52479U 22049AE  24221.90162512 -.00003452  00000-0 -19888-3 0  9994,2 52479  53.2166 122.9097 0001529 113.6929 246.4224 15.08839323125329,6917.882,95.438,540.805,538.69,0.0
52479.0,STARLINK-3878,PAYLOAD,2024-08-09 10:21:25,15.08847781,0.0001628,53.2174,120.5306,75.5754,284.5419,-5.5109e-06,-3.76e-06,0.0,0 STARLINK-3878,1 52479U 22049AE  24222.43154150 -.00000376  00000-0 -55109-5 0  9992,2 52479  53.2174 120.5306 0001628  75.5754 284.5419 15.08847781125402,6917.857,95.437,540.848,538.595,0.0
52479.0,STARLINK-3878,PAYLOAD,2024-08-09 21:29:07,15.0883843,0.0001364,53.2168,118.4553,77.6588,282.4557,0.00017367,2.477e-05,0.0,0 STARLINK-3878,1 52479U 22049AE  24222.89522665  .00002477  00000-0  17367-3 0  9996,2 52479  53.2168 118.4553 0001364  77.6588 282.4557 15.08838430126558,6917.885,95.438,540.694,538.807,0.0
52479.0,STARLINK-3878,PAYLOAD,2024-08-10 00:39:53,15.0885371,0.0001396,53.2168,117.8545,73.9011,286.2134,0.0003877,5.89e-05,0.0,0 STARLINK-3878,1 52479U 22049AE  24223.02769904  .00005890  00000-0  38770-3 0  9994,2 52479  53.2168 117.8545 0001396  73.9011 286.2134 15.08853710126570,6917.838,95.437,540.669,538.738,0.0
52479.0,STARLINK-3878,PAYLOAD,2024-08-10 21:19:54,15.0884122,0.000138,53.2162,113.9902,78.4243,281.6904,3.169e-05,2.16e-06,0.0,0 STARLINK-3878,1 52479U 22049AE  24223.88882628  .00000216  00000-0  31690-4 0  9999,2 52479  53.2162 113.9902 0001380  78.4243 281.6904 15.08841220125620,6917.877,95.437,540.696,538.787,0.0
52479.0,STARLINK-3878,PAYLOAD,2024-08-11 02:06:03,15.08861846,0.0001372,53.2168,113.0971,86.2973,273.8176,0.00035213,5.324e-05,0.0,0 STARLINK-3878,1 52479U 22049AE  24224.08753663  .00005324  00000-0  35213-3 0  9997,2 52479  53.2168 113.0971 0001372  86.2973 273.8176 15.08861846125654,6917.814,95.436,540.628,538.729,0.0
52479.0,STARLINK-3878,PAYLOAD,2024-08-11 10:03:00,15.08832769,0.0002017,53.217,111.6101,82.4,277.7221,-7.2393e-05,-1.44e-05,0.0,0 STARLINK-3878,1 52479U 22049AE  24224.41875173 -.00001440  00000-0 -72393-4 0  9993,2 52479  53.2170 111.6101 0002017  82.4000 277.7221 15.08832769125704,6917.902,95.438,541.163,538.372,0.0
52479.0,STARLINK-3878,PAYLOAD,2024-08-11 22:46:05,15.08837796,0.0001289,53.2157,109.2369,57.9336,302.1781,6.2959e-05,7.14e-06,0.0,0 STARLINK-3878,1 52479U 22049AE  24224.94866940  .00000714  00000-0  62959-4 0  9991,2 52479  53.2157 109.2369 0001289  57.9336 302.1781 15.08837796126864,6917.887,95.438,540.644,538.86,0.0
52479.0,STARLINK-3878,PAYLOAD,2024-08-12 01:56:49,15.08867427,0.0001494,53.2169,108.6387,77.3829,282.733,0.00036095,5.465e-05,0.0,0 STARLINK-3878,1 52479U 22049AE  24225.08113283  .00005465  00000-0  36095-3 0  9991,2 52479  53.2169 108.6387 0001494  77.3829 282.7330 15.08867427125801,6917.797,95.436,540.695,538.628,0.0
52479.0,STARLINK-3878,PAYLOAD,2024-08-12 09:53:46,15.08843971,0.000163,53.2179,107.1508,86.7993,273.3185,4.5505e-05,4.36e-06,0.0,0 STARLINK-3878,1 52479U 22049AE  24225.41234296  .00000436  00000-0  45505-4 0  9996,2 52479  53.2179 107.1508 0001630  86.7993 273.3185 15.08843971125856,6917.868,95.437,540.861,538.606,0.0
52479.0,STARLINK-3878,PAYLOAD,2024-08-12 21:01:27,15.08861406,9.99e-05,53.2171,105.072,76.8888,283.2216,0.00012261,1.665e-05,0.0,0 STARLINK-3878,1 52479U 22049AE  24225.87601265  .00001665  00000-0  12261-3 0  9997,2 52479  53.2171 105.0720 0000999  76.8888 283.2216 15.08861406125927,6917.815,95.436,540.371,538.989,0.0
